BEIDOU-3 M20 (C42)      
1 44865U 19090B   26073.30245928  .00000019  00000+0  00000+0 0  9995
2 44865  56.4780  65.9600 0017869 303.3279  64.8469  1.86231612 42455
BEIDOU-3 G2 (C60)       
1 45344U 20017A   26074.15480422 -.00000139  00000+0  00000+0 0  9997
2 45344   2.6744  45.7550 0002741 323.6454 299.1401  1.00272327 22310
COSMOS 2545 (760)       
1 45358U 20018A   26073.90331436 -.00000017  00000+0  00000+0 0  9990
2 45358  64.4114 315.7347 0007923 249.4705 110.5087  2.13102754 46657
BEIDOU-3 G3 (C61)       
1 45807U 20040A   26074.08954396 -.00000353  00000+0  00000+0 0  9993
2 45807   2.2145  67.1502 0004845 325.3989 282.9054  1.00270422 21125
GPS BIII-3  (PRN 23)    
1 45854U 20041A   26074.23277601 -.00000049  00000+0  00000+0 0  9992
2 45854  56.6123  32.5896 0061514 205.1444 322.6890  2.00560555 42151
GALAXY 30 (WAAS/PRN 135)
1 46114U 20056C   26074.25689799  .00000000  00000+0  00000+0 0  9991
2 46114   0.0272 152.7003 0002021 214.1508 133.4993  1.00270038 20356
COSMOS 2547 (705K)      
1 46805U 20075A   26071.27634948  .00000011  00000+0  00000+0 0  9996
2 46805  64.5993 195.7069 0007007 230.8854 129.0383  2.13100396 41840
GPS BIII-4  (PRN 14)    
1 46826U 20078A   26074.28281818  .00000009  00000+0  00000+0 0  9997
2 46826  53.9997 214.5850 0068810 204.5097 332.9899  2.00565421 39623
GPS BIII-5  (PRN 11)    
1 48859U 21054A   26073.52842193 -.00000075  00000+0  00000+0 0  9999
2 48859  55.2165 336.2678 0023802 231.6535 305.6629  2.00575107 34853
QZS-1R (QZSS/PRN 196)   
1 49336U 21096A   26073.48417348 -.00000213  00000+0  00000+0 0  9995
2 49336  37.2643  80.9807 0748407 269.9092 130.1920  1.00287959 16061
GSAT0223 (GALILEO 27)   
1 49809U 21116A   26073.28386141 -.00000081  00000+0  00000+0 0  9990
2 49809  57.1915 344.2418 0001958 285.8605 269.7171  1.70475737 26566
GSAT0224 (GALILEO 28)   
1 49810U 21116B   26064.29072237 -.00000105  00000+0  00000+0 0  9998
2 49810  57.1948 344.4822 0001942 295.2728 253.6293  1.70475760 26438
COSMOS 2557 (706K)      
1 52984U 22075A   26072.84916696 -.00000029  00000+0  00000+0 0  9990
2 52984  64.3539 317.8460 0011386 283.8913  76.0424  2.13102035 28686
COSMOS 2559 (707K)      
1 54031U 22130A   26074.07636359 -.00000021  00000+0  00000+0 0  9991
2 54031  64.3253 317.8892 0010667 179.9327 180.1308  2.13101353 26686
COSMOS 2564 (761)       
1 54377U 22161A   26072.51205527  .00000005  00000+0  00000+0 0  9995
2 54377  64.7411 195.8848 0009674 211.5910 148.3349  2.13101956 25590
GPS BIII-6  (PRN 28)    
1 55268U 23009A   26074.23186546  .00000008  00000+0  00000+0 0  9990
2 55268  55.1110 152.2127 0004379 349.3823  14.1122  2.00548535 23363
BEIDOU-3 G4 (C62)       
1 56564U 23066A   26072.17398353 -.00000111  00000+0  00000+0 0  9991
2 56564   0.6336 312.1088 0002647 153.4351 287.9442  1.00272296 10433
